CCSDS_OEM_VERS = 2.0  
CREATION_DATE  = 2026-05-08T15:37:27
ORIGINATOR     = ESOC/OPS-GFA                            
 
 



META_START
OBJECT_NAME          = LISA                                    
OBJECT_ID            = -1000                                   
CENTER_NAME          = SUN                     
REF_FRAME            = EME2000 
TIME_SYSTEM          = TCB
START_TIME           = 2036-12-23T00:00:30.346418            
STOP_TIME            = 2047-09-08T07:23:53.027780            
INTERPOLATION        = HERMITE                                 
INTERPOLATION_DEGREE = 7                                       
META_STOP

2045-03-12T11:09:23.540924    -1.25560349130352303e+08    7.51562929865269065e+07    3.27248688424319588e+07   -1.61422233555979275e+01   -2.28188373407229967e+01   -1.01592852308834729e+01    4.94224146090216286e-06   -2.95836171978645915e-06   -1.28814085630949501e-06
2045-03-13T07:27:50.522866    -1.26727209105689824e+08    7.34802291250700951e+07    3.19787377320076525e+07   -1.57791890914949100e+01   -2.30327278635081285e+01   -1.02523947295145526e+01    4.98917742377598337e-06   -2.89297057205585595e-06   -1.25902485972715174e-06
2045-03-14T03:46:17.504806    -1.27867404245686397e+08    7.17887036865949631e+07    3.12258777215786390e+07   -1.54127610449310435e+01   -2.32418145740996103e+01   -1.03433655109595115e+01    5.03508398323080663e-06   -2.82694522963605530e-06   -1.22963259456575439e-06
2045-03-15T00:04:44.486748    -1.28980689160746709e+08    7.00820695403061956e+07    3.04664458968446888e+07   -1.50430148556061862e+01   -2.34460515948496315e+01   -1.04321775948168387e+01    5.07995068805191075e-06   -2.76029902305034893e-06   -1.19997000108792082e-06
2045-03-15T20:23:11.468689    -1.30066824039388984e+08    6.83606828768591732e+07    2.97006007896253392e+07   -1.46700269204991578e+01   -2.36453940279188828e+01   -1.05188114372477202e+01    5.12376727512273502e-06   -2.69304542729435626e-06   -1.17004308246739577e-06
2045-03-16T16:41:38.450630    -1.31125574711658686e+08    6.66249031371062770e+07    2.89285023460786976e+07   -1.42938743795752341e+01   -2.38397979659759081e+01   -1.06032479356346769e+01    5.16652368360280883e-06   -2.62519806527724145e-06   -1.13985790627525423e-06
2045-03-17T13:00:05.432571    -1.32156712696495682e+08    6.48750929384136647e+07    2.81503118939121664e+07   -1.39146351005953406e+01   -2.40292205030779016e+01   -1.06854684333183663e+01    5.20821006532225278e-06   -2.55677070934112152e-06   -1.10942060513157854e-06
2045-03-18T09:18:32.414512    -1.33160015238893420e+08    6.31116179991841987e+07    2.73661921088421419e+07   -1.35323876633030924e+01   -2.42136197455925704e+01   -1.07654547243516401e+01    5.24881679141082037e-06   -2.48777728086812268e-06   -1.07873737652673400e-06
2045-03-19T05:36:59.396453    -1.34135265342688754e+08    6.13348470622218102e+07    2.65763069805600829e+07   -1.31472113432657736e+01   -2.43929548230208688e+01   -1.08431890582099779e+01    5.28833445513099872e-06   -2.41823184795857533e-06   -1.04781448180513898e-06
2045-03-20T01:55:26.378394    -1.35082251804820836e+08    5.95451518175729364e+07    2.57808217784618139e+07   -1.27591860956454113e+01   -2.45671858985803659e+01   -1.09186541443973528e+01    5.32675387095917601e-06   -2.34814862120386738e-06   -1.01665824432158356e-06
2045-03-20T22:13:53.360335    -1.36000769256897807e+08    5.77429068254803121e+07    2.49799030173975937e+07   -1.23683925391760141e+01   -2.47362741794089125e+01   -1.09918331568866865e+01    5.36406606987211070e-06   -2.27754194753263467e-06   -9.85275046761078394e-07
2045-03-21T18:32:20.342276    -1.36890618219909668e+08    5.59284894400846064e+07    2.41737184236998409e+07   -1.19749119406231550e+01   -2.49001819262484609e+01   -1.10627097383339219e+01    5.40026229085776569e-06   -2.20642630213816597e-06   -9.53671327625385004e-07
2045-03-22T14:50:47.324217    -1.37751605177925855e+08    5.41022797345095128e+07    2.33624369017458782e+07   -1.15788262000019664e+01   -2.50588724624686741e+01   -1.11312680040048733e+01    5.43533396865079135e-06   -2.13481627848576773e-06   -9.21853576885861852e-07
2045-03-23T11:09:14.306158    -1.38583542676616371e+08    5.22646604279654324e+07    2.25462285013128072e+07   -1.11802178368297085e+01   -2.52123101822901639e+01   -1.11974925453539154e+01    5.46927271771839693e-06   -2.06272657642305443e-06   -8.89828330812607727e-07
2045-03-24T07:27:41.288099    -1.39386249452434689e+08    5.04160168155075684e+07    2.17252643859816268e+07   -1.07791699776889764e+01   -2.53604605580670466e+01   -1.12613684331936206e+01    5.50207031237170357e-06   -1.99017198830843905e-06   -8.57602165942957809e-07
2045-03-25T03:49:00.281803    -1.40161334944754869e+08    4.85523497904463857e+07    2.08977691159625612e+07   -1.03748144565703431e+01   -2.55036199157270040e+01   -1.13230231585516741e+01    5.53379231586873693e-06   -1.91699537019710199e-06   -8.25105307000034230e-07
2045-03-26T00:10:19.275506    -1.40906705556325287e+08    4.66783890612393618e+07    2.00658432720496543e+07   -9.96817691059708721e+00   -2.56414008686021475e+01   -1.13822896027764298e+01    5.56435226402345274e-06   -1.84338199586141982e-06   -7.92420057112655851e-07
2045-03-26T20:31:38.269210    -1.41622197223023355e+08    4.47945299032238945e+07    1.92296623612605818e+07   -9.55934276511404946e+00   -2.57737719732837043e+01   -1.14391542103015063e+01    5.59374278626446095e-06   -1.76934721132803341e-06   -7.59553234159645885e-07
2045-03-27T16:52:57.262913    -1.42307652092906058e+08    4.29011698631583303e+07    1.83894028696755394e+07   -9.14839797894646622e+00   -2.59007029146828955e+01   -1.14936039268118950e+01    5.62195669740995512e-06   -1.69490646617640247e-06   -7.26511701060333139e-07
2045-03-28T13:14:16.256616    -1.42962918623170227e+08    4.09987086698273793e+07    1.75452422224988304e+07   -8.73542902989679426e+00   -2.60221645136914361e+01   -1.15456262025726542e+01    5.64898702189597946e-06   -1.62007531529712167e-06   -6.93302366452344288e-07
2045-03-29T09:35:35.250319    -1.43587851648132205e+08    3.90875481470683590e+07    1.66973587453105394e+07   -8.32052289862973993e+00   -2.61381287349324296e+01   -1.15952089957909568e+01    5.67482701363793939e-06   -1.54486941964817200e-06   -6.59932184944097088e-07
2045-03-30T05:56:54.244022    -1.44182312424296051e+08    3.71680921285488755e+07    1.58459316261871867e+07   -7.90376705126163692e+00   -2.62485686945300571e+01   -1.16423407759810456e+01    5.69947017153326963e-06   -1.46930454600989931e-06   -6.26408156942403553e-07
2045-03-31T02:18:13.237726    -1.44746168658569604e+08    3.52407463736431077e+07    1.49911408783776760e+07   -7.48524942097386869e+00   -2.63534586678244303e+01   -1.16870105273009717e+01    5.72291025059273460e-06   -1.39339656573504694e-06   -5.92737328053578905e-07
2045-03-31T22:39:32.231429    -1.45279294525688767e+08    3.33059184837540574e+07    1.41331673032209091e+07   -7.06505838897009575e+00   -2.64527740969583078e+01   -1.17292077518298772e+01    5.74514126872268559e-06   -1.31716145250073242e-06   -5.58926788061006633e-07
2045-04-01T19:00:51.225132    -1.45781570680908978e+08    3.13640178184289634e+07    1.32721924529914241e+07   -6.64328276509695392e+00   -2.65464915982620724e+01   -1.17689224727546993e+01    5.76615750911987705e-06   -1.24061527904954452e-06   -5.24983669473666331e-07
2045-04-02T15:22:10.218835    -1.46252884274024189e+08    2.94154554106149860e+07    1.24083985933592636e+07   -6.22001176844805137e+00   -2.66345889693636337e+01   -1.18061452374350804e+01    5.78595351833371521e-06   -1.16377421293931849e-06   -4.90915145654008031e-07
2045-04-03T11:43:29.212539    -1.46693128970772475e+08    2.74606438804027028e+07    1.15419686651506256e+07   -5.79533500827088854e+00   -2.67170451959496553e+01   -1.18408671203153375e+01    5.80452409996431941e-06   -1.08665451128873613e-06   -4.56728428519711838e-07
2045-04-04T08:04:48.206242    -1.47102204987688661e+08    2.54999973466044441e+07    1.06730862450954579e+07   -5.36934246549649252e+00   -2.67938404581047962e+01   -1.18730797256522838e+01    5.82186430392228156e-06   -1.00927251449620635e-06   -4.22430765809479980e-07
2045-04-05T04:26:07.199946    -1.47480019146462917e+08    2.35339313355148509e+07    9.80193550524839014e+06   -4.94212447521151077e+00   -2.68649561361553424e+01   -1.19027751900277590e+01    5.83796941145704707e-06   -9.31644639001310720e-07   -3.88029437942927913e-07
2045-04-06T00:47:26.193649    -1.47826484953865588e+08    2.15628626862006485e+07    8.92870117076939531e+06   -4.51377171039235847e+00   -2.69303748159439102e+01   -1.19299461846146588e+01    5.85283491574516688e-06   -8.53787369013106468e-07   -3.53531754441666245e-07
2045-04-06T21:08:45.187352    -1.48141522713297665e+08    1.95872094516672716e+07    8.05356847575037740e+06   -4.08437516722138394e+00   -2.69900802934616628e+01   -1.19545859171653195e+01    5.86645649801712026e-06   -7.75717247209968807e-07   -3.18945049913943435e-07
2045-04-07T17:24:38.411923    -1.48423868662021071e+08    1.76162009318549745e+07    7.18062476243449934e+06   -3.65594126522211749e+00   -2.70438303185666165e+01   -1.19765955019030805e+01    5.87877837811239160e-06   -6.97799362179248930e-07   -2.84431033609057931e-07
2045-04-08T13:40:31.636495    -1.48674927302973926e+08    1.56414786813341528e+07    6.30616729020774737e+06   -3.22665366251416685e+00   -2.70918893923508364e+01   -1.19960844491917129e+01    5.88985999912707907e-06   -6.19703556393900872e-07   -2.49843431190308846e-07
2045-04-09T09:56:24.861067    -1.48894639689648032e+08    1.36634583178762104e+07    5.43038013058145437e+06   -2.79660295938831016e+00   -2.71342451386748706e+01   -1.20130476582186336e+01    5.89969812085836073e-06   -5.41446392057462989e-07   -2.15189581462325748e-07
